JILIN-1                 
1 40961U 15057D   26187.77944734  .00000801  00000+0  11698-3 0  9993
2 40961  97.6513 186.1740 0016443 194.3742 165.7004 14.78192526578501
JILIN-1 03              
1 41914U 17002B   26187.82077972  .00010492  00000+0  24716-3 0  9993
2 41914  97.1952 194.6339 0008007 101.5466 258.6681 15.42079672524883
JILIN-1 04              
1 43022U 17074A   26187.86973064  .00010985  00000+0  25133-3 0  9996
2 43022  97.4866 298.0152 0005169 121.7452 238.4300 15.42977027477308
JILIN-1 05              
1 43023U 17074B   26187.82068943  .00006453  00000+0  19735-3 0  9990
2 43023  97.4872 294.2455 0005998 148.3598 211.8006 15.34194260477013
JILIN-1 06              
1 43024U 17074C   26187.86031262  .00004580  00000+0  14193-3 0  9991
2 43024  97.4798 291.2694 0007460 159.5873 200.5669 15.33932869476854
JILIN-1 07              
1 43159U 18008E   26187.78153925  .00007603  00000+0  22552-3 0  9997
2 43159  97.1768 207.1904 0007701   1.6623 358.4645 15.35067439468004
JILIN-1 08              
1 43160U 18008F   26187.86056802  .00004887  00000+0  15110-3 0  9997
2 43160  97.1804 206.5620 0006350  22.7169 337.4354 15.33944513467966
JILIN-1 09              
1 43943U 19005B   26187.85590255  .00003766  00000+0  17453-3 0  9995
2 43943  97.4739 282.6530 0002997  54.2678 305.8836 15.20693150412135
JILIN-1 10              
1 43946U 19005E   26187.86628760  .00004633  00000+0  18327-3 0  9997
2 43946  97.4789 286.6740 0007754 198.7058 161.3896 15.25944678412312
